NORAD_CAT_ID,OBJECT_NAME,OBJECT_TYPE,EPOCH,MEAN_MOTION,ECCENTRICITY,INCLINATION,RA_OF_ASC_NODE,ARG_OF_PERICENTER,MEAN_ANOMALY,BSTAR,MEAN_MOTION_DOT,MEAN_MOTION_DDOT,TLE_LINE0,TLE_LINE1,TLE_LINE2,SEMIMAJOR_AXIS,PERIOD,APOGEE,PERIGEE,DECAYED
53707.0,STARLINK-4667,PAYLOAD,2024-06-08 20:48:21,15.0885158,0.0001442,53.2173,216.9242,90.7397,269.376,0.00014783,2.066e-05,0.0,0 STARLINK-4667,1 53707U 22107H   24160.86691125  .00002066  00000-0  14783-3 0  9995,2 53707  53.2173 216.9242 0001442  90.7397 269.3760 15.08851580 98626,6917.845,95.437,540.708,538.712,0.0
53707.0,STARLINK-4667,PAYLOAD,2024-06-09 12:42:13,15.08829204,0.0001503,53.2159,213.9466,84.2561,275.8603,-0.00010482,-1.955e-05,0.0,0 STARLINK-4667,1 53707U 22107H   24161.52932719 -.00001955  00000-0 -10482-3 0  9996,2 53707  53.2159 213.9466 0001503  84.2561 275.8603 15.08829204 97977,6917.913,95.438,540.818,538.739,0.0
53707.0,STARLINK-4667,PAYLOAD,2024-06-09 20:39:09,15.08837261,0.0001536,53.2161,212.4629,91.8935,268.2233,8.2004e-06,-1.57e-06,0.0,0 STARLINK-4667,1 53707U 22107H   24161.86052482 -.00000157  00000-0  82004-5 0  9996,2 53707  53.2161 212.4629 0001536  91.8935 268.2233 15.08837261 98776,6917.889,95.438,540.816,538.691,0.0
53707.0,STARLINK-4667,PAYLOAD,2024-06-10 03:00:41,15.08840289,0.0001619,53.2163,211.2723,91.5282,268.5896,8.5634e-05,1.075e-05,0.0,0 STARLINK-4667,1 53707U 22107H   24162.12548455  .00001075  00000-0  85634-4 0  9996,2 53707  53.2163 211.2723 0001619  91.5282 268.5896 15.08840289 98068,6917.88,95.438,540.865,538.625,0.0
53707.0,STARLINK-4667,PAYLOAD,2024-06-10 10:57:37,15.08845615,0.0001347,53.2139,209.7856,97.589,262.5255,0.00075106,0.00011687,0.0,0 STARLINK-4667,1 53707U 22107H   24162.45668461  .00011687  00000-0  75106-3 0  9994,2 53707  53.2139 209.7856 0001347  97.5890 262.5255 15.08845615 98868,6917.863,95.437,540.66,538.796,0.0
53707.0,STARLINK-4667,PAYLOAD,2024-06-10 20:29:56,15.08857648,0.0001366,53.2139,208.0007,97.598,262.5168,0.00084233,0.0001315,0.0,0 STARLINK-4667,1 53707U 22107H   24162.85412124  .00013150  00000-0  84233-3 0  9999,2 53707  53.2139 208.0007 0001366  97.5980 262.5168 15.08857648 98928,6917.826,95.436,540.636,538.746,0.0
53707.0,STARLINK-4667,PAYLOAD,2024-06-11 09:13:01,15.08852976,0.0001377,53.214,205.6224,89.1813,270.9337,0.00053332,8.213e-05,0.0,0 STARLINK-4667,1 53707U 22107H   24163.38404002  .00008213  00000-0  53332-3 0  9994,2 53707  53.2140 205.6224 0001377  89.1813 270.9337 15.08852976 99008,6917.841,95.437,540.658,538.753,0.0
53707.0,STARLINK-4667,PAYLOAD,2024-06-12 02:42:15,15.08839953,0.0001842,53.2165,202.3518,100.218,259.902,0.00026178,3.881e-05,0.0,0 STARLINK-4667,1 53707U 22107H   24164.11268320  .00003881  00000-0  26178-3 0  9991,2 53707  53.2165 202.3518 0001842 100.2180 259.9020 15.08839953 98368,6917.881,95.438,541.02,538.471,0.0
53707.0,STARLINK-4667,PAYLOAD,2024-06-12 05:53:02,15.08835902,0.0001698,53.2166,201.7572,101.7965,258.3218,6.7362e-05,7.84e-06,0.0,0 STARLINK-4667,1 53707U 22107H   24164.24516382  .00000784  00000-0  67362-4 0  9999,2 53707  53.2166 201.7572 0001698 101.7965 258.3218 15.08835902 99136,6917.893,95.438,540.933,538.583,0.0
53707.0,STARLINK-4667,PAYLOAD,2024-06-12 09:03:48,15.08834405,0.0001597,53.2168,201.1624,98.0558,262.0615,-0.00010034,-1.884e-05,0.0,0 STARLINK-4667,1 53707U 22107H   24164.37764635 -.00001884  00000-0 -10034-3 0  9996,2 53707  53.2168 201.1624 0001597  98.0558 262.0615 15.08834405 98403,6917.897,95.438,540.867,538.658,0.0
53707.0,STARLINK-4667,PAYLOAD,2024-06-13 08:54:35,15.08842296,0.0001305,53.2153,196.7028,91.9071,268.207,0.00018148,2.602e-05,0.0,0 STARLINK-4667,1 53707U 22107H   24165.37124461  .00002602  00000-0  18148-3 0  9995,2 53707  53.2153 196.7028 0001305  91.9071 268.2070 15.08842296 98559,6917.873,95.437,540.641,538.836,0.0
53707.0,STARLINK-4667,PAYLOAD,2024-06-14 08:45:23,15.08834952,0.0001349,53.2154,192.2424,93.2426,266.8721,0.00011897,1.606e-05,0.0,0 STARLINK-4667,1 53707U 22107H   24166.36484993  .00001606  00000-0  11897-3 0  9991,2 53707  53.2154 192.2424 0001349  93.2426 266.8721 15.08834952 99455,6917.896,95.438,540.694,538.828,0.0
53707.0,STARLINK-4667,PAYLOAD,2024-06-14 18:17:41,15.08838362,0.0001331,53.2153,190.4582,92.2691,267.8454,8.5604e-05,1.075e-05,0.0,0 STARLINK-4667,1 53707U 22107H   24166.76228872  .00001075  00000-0  85604-4 0  9995,2 53707  53.2153 190.4582 0001331  92.2691 267.8454 15.08838362 99513,6917.885,95.438,540.671,538.83,0.0
53707.0,STARLINK-4667,PAYLOAD,2024-06-15 08:36:09,15.08842151,0.0001261,53.2159,187.7811,91.5346,268.5791,7.3488e-05,8.82e-06,0.0,0 STARLINK-4667,1 53707U 22107H   24167.35844819  .00000882  00000-0  73488-4 0  9998,2 53707  53.2159 187.7811 0001261  91.5346 268.5791 15.08842151 99607,6917.874,95.437,540.611,538.866,0.0
53707.0,STARLINK-4667,PAYLOAD,2024-06-15 18:08:28,15.08844955,0.0001265,53.2161,185.9966,89.3238,270.7899,0.00011658,1.568e-05,0.0,0 STARLINK-4667,1 53707U 22107H   24167.75588517  .00001568  00000-0  11658-3 0  9994,2 53707  53.2161 185.9966 0001265  89.3238 270.7899 15.08844955 99664,6917.865,95.437,540.605,538.855,0.0
53707.0,STARLINK-4667,PAYLOAD,2024-06-16 10:02:20,15.08837887,0.0001376,53.2166,183.0235,87.3441,272.7708,0.00010666,1.41e-05,0.0,0 STARLINK-4667,1 53707U 22107H   24168.41829097  .00001410  00000-0  10666-3 0  9993,2 53707  53.2166 183.0235 0001376  87.3441 272.7708 15.08837887 99762,6917.887,95.438,540.704,538.8,0.0
53707.0,STARLINK-4667,PAYLOAD,2024-06-17 17:50:02,15.0884337,0.0001405,53.2164,177.0762,85.9371,274.1782,5.0462e-05,5.15e-06,0.0,0 STARLINK-4667,1 53707U 22107H   24169.74308841  .00000515  00000-0  50462-4 0  9993,2 53707  53.2164 177.0762 0001405  85.9371 274.1782 15.08843370 99961,6917.87,95.437,540.707,538.763,0.0
53707.0,STARLINK-4667,PAYLOAD,2024-06-18 09:43:54,15.08842707,0.0001334,53.2157,174.1008,91.1382,268.9763,9.1495e-05,1.169e-05,0.0,0 STARLINK-4667,1 53707U 22107H   24170.40548705  .00001169  00000-0  91495-4 0  9990,2 53707  53.2157 174.1008 0001334  91.1382 268.9763 15.08842707 99318,6917.872,95.437,540.66,538.814,0.0
53707.0,STARLINK-4667,PAYLOAD,2024-06-18 17:40:49,15.08843347,0.0001332,53.2158,172.614,90.8055,269.309,9.382e-05,1.206e-05,0.0,0 STARLINK-4667,1 53707U 22107H   24170.73668587  .00001206  00000-0  93820-4 0  9993,2 53707  53.2158 172.6140 0001332  90.8055 269.3090 15.08843347100110,6917.87,95.437,540.657,538.814,0.0
53707.0,STARLINK-4667,PAYLOAD,2024-06-19 09:34:41,15.08838642,0.0001396,53.2161,169.6416,88.9779,271.1373,4.9571e-05,5.01e-06,0.0,0 STARLINK-4667,1 53707U 22107H   24171.39909036  .00000501  00000-0  49571-4 0  9994,2 53707  53.2161 169.6416 0001396  88.9779 271.1373 15.08838642 99469,6917.885,95.438,540.715,538.784,0.0
53707.0,STARLINK-4667,PAYLOAD,2024-06-20 06:14:42,15.08839073,0.0001428,53.2162,165.7751,94.1086,266.007,1.8252e-05,3e-08,0.0,0 STARLINK-4667,1 53707U 22107H   24172.26021071  .00000003  00000-0  18252-4 0  9994,2 53707  53.2162 165.7751 0001428  94.1086 266.0070 15.08839073100341,6917.883,95.438,540.736,538.76,0.0
53707.0,STARLINK-4667,PAYLOAD,2024-06-20 23:43:56,15.08837873,0.0001393,53.2161,162.5039,93.7041,266.411,6.3066e-05,7.16e-06,0.0,0 STARLINK-4667,1 53707U 22107H   24172.98885047  .00000716  00000-0  63066-4 0  9998,2 53707  53.2161 162.5039 0001393  93.7041 266.4110 15.08837873 99703,6917.887,95.438,540.716,538.788,0.0
53707.0,STARLINK-4667,PAYLOAD,2024-06-21 09:16:15,15.08838975,0.0001404,53.2162,160.7199,93.5088,266.6064,6.0364e-05,6.73e-06,0.0,0 STARLINK-4667,1 53707U 22107H   24173.38629043  .00000673  00000-0  60364-4 0  9995,2 53707  53.2162 160.7199 0001404  93.5088 266.6064 15.08838975100519,6917.884,95.438,540.72,538.777,0.0
53707.0,STARLINK-4667,PAYLOAD,2024-06-22 04:20:53,15.0883143,0.0001381,53.2163,157.1507,94.2414,265.8736,8.4283e-06,-1.54e-06,0.0,0 STARLINK-4667,1 53707U 22107H   24174.18117932 -.00000154  00000-0  84283-5 0  9995,2 53707  53.2163 157.1507 0001381  94.2414 265.8736 15.08831430 99881,6917.907,95.438,540.727,538.816,0.0
53707.0,STARLINK-4667,PAYLOAD,2024-06-22 21:50:08,15.08834508,0.0001537,53.2164,153.8792,114.1601,245.9552,1.834e-05,4e-08,0.0,0 STARLINK-4667,1 53707U 22107H   24174.90981927  .00000004  00000-0  18340-4 0  9991,2 53707  53.2164 153.8792 0001537 114.1601 245.9552 15.08834508100746,6917.897,95.438,540.825,538.699,0.0
53707.0,STARLINK-4667,PAYLOAD,2024-06-23 04:11:40,15.08838325,0.0001523,53.2164,152.691,113.637,246.4782,4.9425e-05,4.99e-06,0.0,0 STARLINK-4667,1 53707U 22107H   24175.17477631  .00000499  00000-0  49425-4 0  9999,2 53707  53.2164 152.6910 0001523 113.6370 246.4782 15.08838325100031,6917.886,95.438,540.804,538.697,0.0
53707.0,STARLINK-4667,PAYLOAD,2024-06-23 07:22:26,15.08840458,0.0001423,53.2164,152.0962,105.7044,254.4105,6.3427e-05,7.22e-06,0.0,0 STARLINK-4667,1 53707U 22107H   24175.30725512  .00000722  00000-0  63427-4 0  9995,2 53707  53.2164 152.0962 0001423 105.7044 254.4105 15.08840458100804,6917.879,95.438,540.728,538.76,0.0
53707.0,STARLINK-4667,PAYLOAD,2024-06-24 07:13:13,15.08842444,0.0001257,53.2164,147.6372,97.4882,262.6253,0.00012642,1.725e-05,0.0,0 STARLINK-4667,1 53707U 22107H   24176.30085346  .00001725  00000-0  12642-3 0  9996,2 53707  53.2164 147.6372 0001257  97.4882 262.6253 15.08842444100207,6917.873,95.437,540.607,538.868,0.0
53707.0,STARLINK-4667,PAYLOAD,2024-06-25 05:28:37,15.08842382,0.000133,53.2165,143.4722,97.9439,262.1704,3.3676e-05,2.48e-06,0.0,0 STARLINK-4667,1 53707U 22107H   24177.22821587  .00000248  00000-0  33676-4 0  9993,2 53707  53.2165 143.4722 0001330  97.9439 262.1704 15.08842382100348,6917.873,95.437,540.658,538.818,0.0
53707.0,STARLINK-4667,PAYLOAD,2024-06-25 19:47:06,15.08842244,0.0001444,53.217,140.7948,85.9655,274.1502,1.952e-05,2.3e-07,0.0,0 STARLINK-4667,1 53707U 22107H   24177.82437650  .00000023  00000-0  19520-4 0  9996,2 53707  53.2170 140.7948 0001444  85.9655 274.1502 15.08842244101186,6917.874,95.437,540.737,538.74,0.0
